1 43013U 17073A   26043.87657793  .00000087  00000+0  61963-4 0  9999
2 43013  98.7663 344.5149 0000084  50.2484 309.8700 14.19529428426832
